{
  "type": "FeatureCollection",
  "features": [
    {
      "type": "Feature",
      "properties": {
        "slug": "port-industrial",
        "nameKk": "Порт / өнеркәсіп аймағы",
        "nameRu": "Порт / промзона",
        "kind": "PORT_INDUSTRIAL"
      },
      "geometry": {
        "type": "Polygon",
        "coordinates": [
          [
            [51.251, 43.585],
            [51.221, 43.6],
            [51.227, 43.6],
            [51.257, 43.585],
            [51.251, 43.585]
          ]
        ]
      }
    },
    {
      "type": "Feature",
      "properties": {
        "slug": "warm-beach",
        "nameKk": "Жылы жағажай (МАЭК)",
        "nameRu": "Тёплый пляж (МАЭК)",
        "kind": "RESORT"
      },
      "geometry": {
        "type": "Polygon",
        "coordinates": [
          [
            [51.221, 43.6],
            [51.196, 43.615],
            [51.202, 43.615],
            [51.227, 43.6],
            [51.221, 43.6]
          ]
        ]
      }
    },
    {
      "type": "Feature",
      "properties": {
        "slug": "mkr-1-5",
        "nameKk": "1–5 шағынаудан жағалауы",
        "nameRu": "Побережье 1–5 мкр",
        "kind": "CITY_BEACH"
      },
      "geometry": {
        "type": "Polygon",
        "coordinates": [
          [
            [51.196, 43.615],
            [51.176, 43.63],
            [51.156, 43.642],
            [51.162, 43.642],
            [51.182, 43.63],
            [51.202, 43.615],
            [51.196, 43.615]
          ]
        ]
      }
    },
    {
      "type": "Feature",
      "properties": {
        "slug": "city-beach",
        "nameKk": "Қалалық жағажай",
        "nameRu": "Городской пляж",
        "kind": "CITY_BEACH"
      },
      "geometry": {
        "type": "Polygon",
        "coordinates": [
          [
            [51.156, 43.642],
            [51.141, 43.655],
            [51.147, 43.655],
            [51.162, 43.642],
            [51.156, 43.642]
          ]
        ]
      }
    },
    {
      "type": "Feature",
      "properties": {
        "slug": "mkr-6-9",
        "nameKk": "6–9 шағынаудан жағалауы",
        "nameRu": "Побережье 6–9 мкр",
        "kind": "CITY_BEACH"
      },
      "geometry": {
        "type": "Polygon",
        "coordinates": [
          [
            [51.141, 43.655],
            [51.126, 43.668],
            [51.114, 43.68],
            [51.12, 43.68],
            [51.132, 43.668],
            [51.147, 43.655],
            [51.141, 43.655]
          ]
        ]
      }
    },
    {
      "type": "Feature",
      "properties": {
        "slug": "mkr-11-15",
        "nameKk": "11–15 шағынаудан жағалауы",
        "nameRu": "Побережье 11–15 мкр",
        "kind": "CITY_BEACH"
      },
      "geometry": {
        "type": "Polygon",
        "coordinates": [
          [
            [51.114, 43.68],
            [51.101, 43.692],
            [51.088, 43.705],
            [51.094, 43.705],
            [51.107, 43.692],
            [51.12, 43.68],
            [51.114, 43.68]
          ]
        ]
      }
    },
    {
      "type": "Feature",
      "properties": {
        "slug": "north-wild",
        "nameKk": "Солтүстік жабайы жағалау",
        "nameRu": "Северный дикий берег",
        "kind": "WILD_COAST"
      },
      "geometry": {
        "type": "Polygon",
        "coordinates": [
          [
            [51.088, 43.705],
            [51.071, 43.725],
            [51.056, 43.745],
            [51.062, 43.745],
            [51.077, 43.725],
            [51.094, 43.705],
            [51.088, 43.705]
          ]
        ]
      }
    },
    {
      "type": "Feature",
      "properties": {
        "slug": "akshukur",
        "nameKk": "Ақшұқыр",
        "nameRu": "Акшукур",
        "kind": "SETTLEMENT"
      },
      "geometry": {
        "type": "Polygon",
        "coordinates": [
          [
            [51.049, 43.763],
            [51.041, 43.775],
            [51.033, 43.787],
            [51.04, 43.787],
            [51.048, 43.775],
            [51.056, 43.763],
            [51.049, 43.763]
          ]
        ]
      }
    },
    {
      "type": "Feature",
      "properties": {
        "slug": "fort-shevchenko",
        "nameKk": "Форт-Шевченко",
        "nameRu": "Форт-Шевченко",
        "kind": "SETTLEMENT"
      },
      "geometry": {
        "type": "Polygon",
        "coordinates": [
          [
            [50.245, 44.505],
            [50.251, 44.515],
            [50.257, 44.525],
            [50.264, 44.525],
            [50.258, 44.515],
            [50.252, 44.505],
            [50.245, 44.505]
          ]
        ]
      }
    },
    {
      "type": "Feature",
      "properties": {
        "slug": "bautino",
        "nameKk": "Баутино",
        "nameRu": "Баутино",
        "kind": "SETTLEMENT"
      },
      "geometry": {
        "type": "Polygon",
        "coordinates": [
          [
            [50.226, 44.542],
            [50.236, 44.548],
            [50.246, 44.554],
            [50.253, 44.554],
            [50.243, 44.548],
            [50.233, 44.542],
            [50.226, 44.542]
          ]
        ]
      }
    },
    {
      "type": "Feature",
      "properties": {
        "slug": "kuryk",
        "nameKk": "Құрық",
        "nameRu": "Курык",
        "kind": "SETTLEMENT"
      },
      "geometry": {
        "type": "Polygon",
        "coordinates": [
          [
            [51.655, 43.158],
            [51.651, 43.17],
            [51.647, 43.182],
            [51.654, 43.182],
            [51.658, 43.17],
            [51.662, 43.158],
            [51.655, 43.158]
          ]
        ]
      }
    },
    {
      "type": "Feature",
      "properties": {
        "slug": "kendirli",
        "nameKk": "Кендірлі",
        "nameRu": "Кендерли",
        "kind": "RESORT"
      },
      "geometry": {
        "type": "Polygon",
        "coordinates": [
          [
            [52.642, 42.726],
            [52.636, 42.74],
            [52.63, 42.754000000000005],
            [52.637, 42.754000000000005],
            [52.643, 42.74],
            [52.649, 42.726],
            [52.642, 42.726]
          ]
        ]
      }
    }
  ]
}
